[
  {
    "name": "CHINASAT 31 (BEIDOU-1 *)",
    "line1": "1 26643U 00082A   26171.38721713 -.00000268  00000+0  00000+0 0  9995",
    "line2": "2 26643  12.5971  27.2931 0080069  88.3648 269.0512  0.99255599 52108"
  },
  {
    "name": "BEIDOU-1 G3",
    "line1": "1 27813U 03021A   26171.31993395 -.00000023  00000+0  00000+0 0  9990",
    "line2": "2 27813  11.3828  41.1798 0018310 308.5776 285.7836  0.99767577 84339"
  },
  {
    "name": "BEIDOU-1 G4",
    "line1": "1 30323U 07003A   26171.36349491 -.00000168  00000+0  00000+0 0  9991",
    "line2": "2 30323   9.8996  56.9234 0053440 275.7804   0.1577  0.99155465 70733"
  },
  {
    "name": "BEIDOU-2 G1",
    "line1": "1 36287U 10001A   26172.58123931 -.00000283  00000+0  00000+0 0  9990",
    "line2": "2 36287   4.3048  60.4064 0002258 301.2394 257.8138  1.00268936 60214"
  },
  {
    "name": "BEIDOU-2 G3",
    "line1": "1 36590U 10024A   26172.17753142 -.00000140  00000+0  00000+0 0  9992",
    "line2": "2 36590   4.5263  61.5087 0007877 352.2650 359.2042  1.00270872 58807"
  },
  {
    "name": "BEIDOU-2 IGSO-1",
    "line1": "1 36828U 10036A   26171.91761853 -.00000070  00000+0  00000+0 0  9990",
    "line2": "2 36828  54.3041 162.9249 0059141 225.3137 318.8441  1.00270895 58130"
  },
  {
    "name": "BEIDOU-2 G4",
    "line1": "1 37210U 10057A   26172.50531091 -.00000115  00000+0  00000+0 0  9994",
    "line2": "2 37210   3.6588  68.9306 0005183 195.6147 347.0523  1.00270792 57337"
  },
  {
    "name": "BEIDOU-2 IGSO-2",
    "line1": "1 37256U 10068A   26170.91319610 -.00000225  00000+0  00000+0 0  9992",
    "line2": "2 37256  47.5419 271.7972 0055919 212.8118 220.2454  1.00282229 56828"
  },
  {
    "name": "BEIDOU-2 IGSO-3",
    "line1": "1 37384U 11013A   26169.61194170 -.00000190  00000+0  00000+0 0  9993",
    "line2": "2 37384  62.4088  40.1377 0034295 184.6608  10.0015  1.00267082 55679"
  },
  {
    "name": "BEIDOU-2 IGSO-4",
    "line1": "1 37763U 11038A   26170.97170663  .00000022  00000+0  00000+0 0  9996",
    "line2": "2 37763  54.6006 165.6472 0159516 231.4774 314.4028  1.00284537 54679"
  },
  {
    "name": "BEIDOU-2 M1",
    "line1": "1 31115U 07011A   26169.50719026  .00000025  00000+0  00000+0 0  9999",
    "line2": "2 31115  50.9302 219.2344 0001760 332.5646  27.5055  1.77349429 76171"
  }
]